{
	"type": "FeatureCollection",
	"features": [
		{
			"id": "IKv8fggplVbD3OXpDDfTzoGhzQynU3JZ",
			"type": "Feature",
			"properties": {},
			"geometry": {
				"coordinates": [
					[
						[
							-80.20199599018572,
							25.748184089737563
						],
						[
							-80.2056563995345,
							25.75256330178307
						],
						[
							-80.20864074247093,
							25.75042929877725
						],
						[
							-80.2095195021895,
							25.750028895016797
						],
						[
							-80.21143209687168,
							25.749563307552208
						],
						[
							-80.21427153163498,
							25.748547361619245
						],
						[
							-80.21746584438031,
							25.74738702210496
						],
						[
							-80.22096568228216,
							25.746129371888813
						],
						[
							-80.24887890355824,
							25.73592755874685
						],
						[
							-80.25021544541602,
							25.73540957333222
						],
						[
							-80.25094588108207,
							25.735017582868906
						],
						[
							-80.25234458767736,
							25.734037601055718
						],
						[
							-80.2538831649315,
							25.73267961290287
						],
						[
							-80.25493996546956,
							25.731839612465677
						],
						[
							-80.2560589307458,
							25.731125607426932
						],
						[
							-80.25733000395462,
							25.72983775861374
						],
						[
							-80.25966118161236,
							25.72789170203201
						],
						[
							-80.26168153558324,
							25.726561645037805
						],
						[
							-80.2647007201514,
							25.724078108410012
						],
						[
							-80.26549332055494,
							25.72357407239855
						],
						[
							-80.26634808569665,
							25.72308403533951
						],
						[
							-80.28937763928747,
							25.704514446870746
						],
						[
							-80.29727386664996,
							25.698107994600434
						],
						[
							-80.30336637364624,
							25.692924792201197
						],
						[
							-80.30782584966629,
							25.68929241682953
						],
						[
							-80.31131096608733,
							25.686456121622257
						],
						[
							-80.31358320058207,
							25.684048676607034
						],
						[
							-80.31540096868613,
							25.6817932002306
						],
						[
							-80.31719726217175,
							25.679261131776315
						],
						[
							-80.31910596156663,
							25.67616784448539
						],
						[
							-80.33546931601578,
							25.64099471202627
						],
						[
							-80.34572589021701,
							25.618853015562323
						],
						[
							-80.34617300330945,
							25.617355563892787
						],
						[
							-80.346534952003,
							25.61533973393435
						],
						[
							-80.34785500018009,
							25.61307428444863
						],
						[
							-80.35442764697959,
							25.598809570443734
						],
						[
							-80.3553999493402,
							25.59588205017225
						],
						[
							-80.3564984604213,
							25.593577274854667
						],
						[
							-80.35756257946717,
							25.59170049644689
						],
						[
							-80.35893411068116,
							25.58984501612298
						],
						[
							-80.36607870235439,
							25.58213507919689
						],
						[
							-80.36462716473828,
							25.577169949230296
						],
						[
							-80.36394139913146,
							25.574269063401857
						],
						[
							-80.36318469225435,
							25.571453430526347
						],
						[
							-80.36304280971505,
							25.569128350436515
						],
						[
							-80.36292063266781,
							25.562057664505488
						],
						[
							-80.36287102447706,
							25.55134273997892
						],
						[
							-80.3511080230226,
							25.55181666429469
						],
						[
							-80.34755329892886,
							25.55476711980876
						],
						[
							-80.3311019117342,
							25.5550705007673
						],
						[
							-80.33124410069782,
							25.563761072275412
						],
						[
							-80.32069918562448,
							25.563552799667207
						],
						[
							-80.31932295957841,
							25.576090505401098
						],
						[
							-80.31810511700536,
							25.57833879736026
						],
						[
							-80.31693205805428,
							25.586033781014848
						],
						[
							-80.31152887743113,
							25.589592543615723
						],
						[
							-80.31195431958866,
							25.594413706329703
						],
						[
							-80.31504692955025,
							25.594830474624885
						],
						[
							-80.31735750021184,
							25.59566400685955
						],
						[
							-80.31600670505586,
							25.5983889755492
						],
						[
							-80.31255862268448,
							25.599158367233343
						],
						[
							-80.3115988471796,
							25.602652625506707
						],
						[
							-80.30985703237324,
							25.60656350907493
						],
						[
							-80.31067461891526,
							25.607653404652453
						],
						[
							-80.30975816071673,
							25.610396585643343
						],
						[
							-80.30986480243982,
							25.614499538648047
						],
						[
							-80.30837181832021,
							25.6136981917076
						],
						[
							-80.30520811387609,
							25.613377651427328
						],
						[
							-80.30133346461383,
							25.6160381097105
						],
						[
							-80.29790932117686,
							25.61941937871616
						],
						[
							-80.29719837635797,
							25.62307330219261
						],
						[
							-80.29510108914255,
							25.62682326534282
						],
						[
							-80.2933948215775,
							25.628073226897897
						],
						[
							-80.28873812679959,
							25.628746286703958
						],
						[
							-80.28653419786107,
							25.629835979963133
						],
						[
							-80.27916992414647,
							25.630218897840166
						],
						[
							-80.27120734217648,
							25.639288576819666
						],
						[
							-80.26918115097317,
							25.649382995031672
						],
						[
							-80.26587525756615,
							25.652555349245063
						],
						[
							-80.26726262348545,
							25.653551004760914
						],
						[
							-80.26495206066437,
							25.65678730736694
						],
						[
							-80.26527198496251,
							25.66050416918499
						],
						[
							-80.26274024430145,
							25.66828635001974
						],
						[
							-80.25946989813498,
							25.674373667222042
						],
						[
							-80.25498615468153,
							25.678257933806634
						],
						[
							-80.25633694983749,
							25.680948981966395
						],
						[
							-80.25886080394382,
							25.68293519281572
						],
						[
							-80.25790102843892,
							25.68578630857303
						],
						[
							-80.25431075710391,
							25.687516165773033
						],
						[
							-80.25121814714232,
							25.687291926441944
						],
						[
							-80.24837436856777,
							25.691488347974726
						],
						[
							-80.2446774555104,
							25.698535419628044
						],
						[
							-80.24588110934064,
							25.70782602502952
						],
						[
							-80.24824037598319,
							25.710823991551834
						],
						[
							-80.24880913183078,
							25.713129977238466
						],
						[
							-80.24735169495246,
							25.714827410362346
						],
						[
							-80.24454346291812,
							25.717261423145686
						],
						[
							-80.24439426169904,
							25.718414204713824
						],
						[
							-80.24445813430648,
							25.718625203716314
						],
						[
							-80.2428079504065,
							25.720759838718536
						],
						[
							-80.24222726040385,
							25.72158922812416
						],
						[
							-80.24214228137892,
							25.722163417402342
						],
						[
							-80.24171738625529,
							25.722137897937486
						],
						[
							-80.24099506454517,
							25.723145912625398
						],
						[
							-80.24151910186411,
							25.72360525825586
						],
						[
							-80.24066931161686,
							25.724307032878826
						],
						[
							-80.2400744584439,
							25.72426875436898
						],
						[
							-80.23891492839256,
							25.725928795614436
						],
						[
							-80.23858917546423,
							25.726464686137746
						],
						[
							-80.23844754375615,
							25.72675814897258
						],
						[
							-80.23790934326631,
							25.727179203079373
						],
						[
							-80.23722951106838,
							25.727294035758277
						],
						[
							-80.23696041082317,
							25.726809185912842
						],
						[
							-80.23586984667254,
							25.725852239627528
						],
						[
							-80.23432606105645,
							25.727294035758277
						],
						[
							-80.23377109850853,
							25.726942136566322
						],
						[
							-80.2332895507018,
							25.727184561464597
						],
						[
							-80.23296379777346,
							25.72756733661444
						],
						[
							-80.23290714509034,
							25.727899074080526
						],
						[
							-80.2334878350924,
							25.728422196666003
						],
						[
							-80.23260971850328,
							25.728945316949904
						],
						[
							-80.23268053435733,
							25.729481193878286
						],
						[
							-80.23280800187204,
							25.729809485122303
						],
						[
							-80.23320457065384,
							25.72987327965778
						],
						[
							-80.23306293894636,
							25.730383634708403
						],
						[
							-80.23319040748291,
							25.730728123129992
						],
						[
							-80.23269469650526,
							25.730753640750294
						],
						[
							-80.23260971748088,
							25.730932263945306
						],
						[
							-80.23310542845854,
							25.73144261445006
						],
						[
							-80.23290714406735,
							25.731646754038522
						],
						[
							-80.23259555430994,
							25.731748823701267
						],
						[
							-80.23185906942892,
							25.73141709697657
						],
						[
							-80.23096678966891,
							25.731608477892507
						],
						[
							-80.2295221462487,
							25.732629170906407
						],
						[
							-80.22987593744561,
							25.733081074821726
						],
						[
							-80.22957851085913,
							25.733463830986906
						],
						[
							-80.22963516354224,
							25.733910378289906
						],
						[
							-80.22926692110174,
							25.733986929087266
						],
						[
							-80.22857292573289,
							25.733336245736126
						],
						[
							-80.22803472524303,
							25.733310728669167
						],
						[
							-80.22567428829389,
							25.734451288814284
						],
						[
							-80.22087466679177,
							25.737142492284676
						],
						[
							-80.22020899776477,
							25.738341749840117
						],
						[
							-80.21852953380777,
							25.739484601248563
						],
						[
							-80.21742480648622,
							25.73939529611137
						],
						[
							-80.21660334258023,
							25.739446327626396
						],
						[
							-80.21602265257819,
							25.738731884414577
						],
						[
							-80.21429474574184,
							25.738247081216926
						],
						[
							-80.21061135910188,
							25.740669814245834
						],
						[
							-80.2102714430032,
							25.741345972796893
						],
						[
							-80.2105688695897,
							25.741792490486347
						],
						[
							-80.21032809568631,
							25.74209867307451
						],
						[
							-80.2103564220276,
							25.742468642649328
						],
						[
							-80.21027144298785,
							25.742953428633143
						],
						[
							-80.21032936494277,
							25.743598342780828
						],
						[
							-80.20922463762065,
							25.744299999381
						],
						[
							-80.20903279540632,
							25.744950734797342
						],
						[
							-80.20840488445313,
							25.74566154593083
						],
						[
							-80.20619542981002,
							25.746643846953603
						],
						[
							-80.20477911273106,
							25.747256186338007
						],
						[
							-80.20268296122362,
							25.748123664086236
						],
						[
							-80.20228639244124,
							25.74788128189398
						],
						[
							-80.20199599018572,
							25.748184089737563
						]
					]
				],
				"type": "Polygon"
			}
		}
	]
}