{
	"type": "FeatureCollection",
	"features": [
		{
			"id": "D4wbR4C5rwPUj5ljg45TQZ1ry73dk3UX",
			"type": "Feature",
			"properties": {},
			"geometry": {
				"coordinates": [
					[
						[
							-80.20560103448918,
							25.746993487083287
						],
						[
							-80.20676262405429,
							25.74845825346999
						],
						[
							-80.20425137804217,
							25.750261784552166
						],
						[
							-80.20755914261345,
							25.749982787058897
						],
						[
							-80.20935130937106,
							25.74979346695855
						],
						[
							-80.21258203616765,
							25.749073421606894
						],
						[
							-80.21901030810294,
							25.74669200320254
						],
						[
							-80.23037602284808,
							25.74254220421919
						],
						[
							-80.23867620331569,
							25.73929838099984
						],
						[
							-80.24854151148281,
							25.73579570706343
						],
						[
							-80.25078755977837,
							25.73487891674408
						],
						[
							-80.2528932300549,
							25.733298227174515
						],
						[
							-80.25728004313193,
							25.72978902120535
						],
						[
							-80.2647702057543,
							25.72375364330999
						],
						[
							-80.26620908044336,
							25.722868376909673
						],
						[
							-80.26591616179077,
							25.722320099495377
						],
						[
							-80.26593743887712,
							25.721610855573005
						],
						[
							-80.26661830563381,
							25.720824931693016
						],
						[
							-80.26710767861553,
							25.72061407318259
						],
						[
							-80.26740555782182,
							25.72024986214896
						],
						[
							-80.26715726501196,
							25.711600920678052
						],
						[
							-80.26698236000804,
							25.71104936308309
						],
						[
							-80.26628273999424,
							25.710550332581377
						],
						[
							-80.2654373658113,
							25.7100775649117
						],
						[
							-80.26619528749288,
							25.709447205096694
						],
						[
							-80.26814839336461,
							25.708186475450546
						],
						[
							-80.27091772258629,
							25.707319716071794
						],
						[
							-80.27441582265534,
							25.70708332605453
						],
						[
							-80.27665552971845,
							25.707160952959924
						],
						[
							-80.2781713730816,
							25.707528670320855
						],
						[
							-80.27922080310263,
							25.70852675457637
						],
						[
							-80.27965806561119,
							25.709761215627765
						],
						[
							-80.28129051230988,
							25.709235914618205
						],
						[
							-80.28315616568025,
							25.70755493580343
						],
						[
							-80.28199013232371,
							25.706057794057187
						],
						[
							-80.28199013232371,
							25.704665697992752
						],
						[
							-80.28443861695128,
							25.704283705307077
						],
						[
							-80.2844094661177,
							25.702497590212488
						],
						[
							-80.29117365476793,
							25.702198051829043
						],
						[
							-80.29333081647775,
							25.701121113831732
						],
						[
							-80.29934623071512,
							25.69611206002716
						],
						[
							-80.29925877821317,
							25.69288105165832
						],
						[
							-80.30092037574605,
							25.692775976743718
						],
						[
							-80.30112443158355,
							25.691331187265007
						],
						[
							-80.2986466107013,
							25.69112103460823
						],
						[
							-80.29858830903353,
							25.689229644009743
						],
						[
							-80.29657690296035,
							25.69067445982452
						],
						[
							-80.28674371833908,
							25.689886380097846
						],
						[
							-80.28519872414172,
							25.689518608243304
						],
						[
							-80.28460186954085,
							25.68837669918011
						],
						[
							-80.2838990186358,
							25.670284030554583
						],
						[
							-80.28343154883949,
							25.66882556687206
						],
						[
							-80.27969179046902,
							25.666103053594327
						],
						[
							-80.27598799131324,
							25.668728335325838
						],
						[
							-80.27580819523752,
							25.67145078865289
						],
						[
							-80.26923482724081,
							25.671408182619743
						],
						[
							-80.26765262177689,
							25.67176468988835
						],
						[
							-80.25458547243012,
							25.67856392776811
						],
						[
							-80.25882865981235,
							25.682614840705853
						],
						[
							-80.2557844872023,
							25.68686485929814
						],
						[
							-80.25118170766864,
							25.687383347714643
						],
						[
							-80.24461247394154,
							25.69872893038587
						],
						[
							-80.24576157734673,
							25.707873646536328
						],
						[
							-80.2487102329856,
							25.71302511582286
						],
						[
							-80.24328039150488,
							25.719115873510376
						],
						[
							-80.24189379790063,
							25.721742424138185
						],
						[
							-80.24040721675132,
							25.72463596025746
						],
						[
							-80.24344777045373,
							25.726991608859095
						],
						[
							-80.24459014035962,
							25.726043300465566
						],
						[
							-80.24509723758521,
							25.72549671642316
						],
						[
							-80.25340598698227,
							25.725513114335207
						],
						[
							-80.25354574579966,
							25.725075431754433
						],
						[
							-80.25757643992605,
							25.725072289190102
						],
						[
							-80.25778051172398,
							25.727545999021416
						],
						[
							-80.25132819005937,
							25.727789103257102
						],
						[
							-80.24668284224424,
							25.72794162257683
						],
						[
							-80.24329580270246,
							25.7280800814125
						],
						[
							-80.24339275786546,
							25.72987941222631
						],
						[
							-80.24060033890981,
							25.729931819563305
						],
						[
							-80.24063912250679,
							25.730682988847477
						],
						[
							-80.23792427074427,
							25.731032368292574
						],
						[
							-80.23778852815568,
							25.73223771949742
						],
						[
							-80.23699346442575,
							25.732255188265796
						],
						[
							-80.23664441205618,
							25.731993156473635
						],
						[
							-80.23472462402361,
							25.733635212842188
						],
						[
							-80.23354747440159,
							25.73257920467549
						],
						[
							-80.2276717595154,
							25.736701750944547
						],
						[
							-80.2183114191253,
							25.741924682265704
						],
						[
							-80.21592926441579,
							25.743575568445976
						],
						[
							-80.2138689149772,
							25.744978083603215
						],
						[
							-80.21066848666298,
							25.741843303258193
						],
						[
							-80.20560103448918,
							25.746993487083287
						]
					]
				],
				"type": "Polygon"
			}
		}
	]
}