{
	"type": "FeatureCollection",
	"features": [
		{
			"id": "cA3RejpkyXFgZCUfDSNkIq4oha0yx0zI",
			"type": "Feature",
			"properties": {},
			"geometry": {
				"coordinates": [
					[
						[
							-80.35409942163665,
							25.59858395205636
						],
						[
							-80.31686493164324,
							25.599539646661867
						],
						[
							-80.31653619174253,
							25.59898859886512
						],
						[
							-80.3187975209711,
							25.595172075258105
						],
						[
							-80.3221071098463,
							25.59022070886057
						],
						[
							-80.32374050087597,
							25.58796547113468
						],
						[
							-80.32624994266578,
							25.58496393697125
						],
						[
							-80.328380027149,
							25.582313515637622
						],
						[
							-80.32932527993142,
							25.581460926858355
						],
						[
							-80.31830752513702,
							25.57766532879569
						],
						[
							-80.31980929576324,
							25.57405301178096
						],
						[
							-80.32057943454608,
							25.57196893315465
						],
						[
							-80.32342894804209,
							25.570648997928274
						],
						[
							-80.32446863539909,
							25.566202793279345
						],
						[
							-80.32620144765991,
							25.563493306378035
						],
						[
							-80.33166943301731,
							25.563493306378035
						],
						[
							-80.33180714301403,
							25.554488180157662
						],
						[
							-80.34547710640794,
							25.55521771826423
						],
						[
							-80.34655530602367,
							25.559733803547147
						],
						[
							-80.35190777056337,
							25.559004292937857
						],
						[
							-80.35136867341592,
							25.551986868796604
						],
						[
							-80.36252065409519,
							25.551660276171475
						],
						[
							-80.36242030462853,
							25.57060218136958
						],
						[
							-80.36398285928176,
							25.576979471228768
						],
						[
							-80.36426749965041,
							25.581915267175802
						],
						[
							-80.36493350690372,
							25.583423578158005
						],
						[
							-80.35955239047,
							25.58886472591415
						],
						[
							-80.3575466459296,
							25.5914310427968
						],
						[
							-80.35512934753183,
							25.596075629618824
						],
						[
							-80.35409942163665,
							25.59858395205636
						]
					]
				],
				"type": "Polygon"
			}
		}
	]
}